NORAD_CAT_ID,OBJECT_NAME,OBJECT_TYPE,EPOCH,MEAN_MOTION,ECCENTRICITY,INCLINATION,RA_OF_ASC_NODE,ARG_OF_PERICENTER,MEAN_ANOMALY,BSTAR,MEAN_MOTION_DOT,MEAN_MOTION_DDOT,TLE_LINE0,TLE_LINE1,TLE_LINE2,SEMIMAJOR_AXIS,PERIOD,APOGEE,PERIGEE,DECAYED
52863.0,STARLINK-4270,PAYLOAD,2024-07-28 03:06:50,15.08827495,0.0001445,53.2169,150.7597,93.4859,266.6299,0.00011372,1.522e-05,0.0,0 STARLINK-4270,1 52863U 22062AK  24210.12975551  .00001522  00000-0  11372-3 0  9997,2 52863  53.2169 150.7597 0001445  93.4859 266.6299 15.08827495117411,6917.919,95.438,540.783,538.784,0.0
52863.0,STARLINK-4270,PAYLOAD,2024-07-28 12:39:09,15.08837182,0.0001642,53.2178,148.9765,94.2476,265.8704,1.9924e-05,2.9e-07,0.0,0 STARLINK-4270,1 52863U 22062AK  24210.52719231  .00000029  00000-0  19924-4 0  9995,2 52863  53.2178 148.9765 0001642  94.2476 265.8704 15.08837182117472,6917.889,95.438,540.89,538.618,0.0
52863.0,STARLINK-4270,PAYLOAD,2024-07-28 19:00:42,15.08835299,0.0001182,53.2183,147.7887,91.0594,269.0534,2.6964e-05,1.41e-06,0.0,0 STARLINK-4270,1 52863U 22062AK  24210.79215365  .00000141  00000-0  26964-4 0  9990,2 52863  53.2183 147.7887 0001182  91.0594 269.0534 15.08835299117020,6917.895,95.438,540.577,538.942,0.0
52863.0,STARLINK-4270,PAYLOAD,2024-07-29 12:29:56,15.08843498,0.0001503,53.2186,144.5165,93.5347,266.5818,0.00014102,1.957e-05,0.0,0 STARLINK-4270,1 52863U 22062AK  24211.52078753  .00001957  00000-0  14102-3 0  9996,2 52863  53.2186 144.5165 0001503  93.5347 266.5818 15.08843498117136,6917.87,95.437,540.774,538.695,0.0
52863.0,STARLINK-4270,PAYLOAD,2024-07-30 02:48:25,15.08831181,0.0001545,53.2174,141.8365,75.3575,284.7588,6.0212e-05,6.7e-06,0.0,0 STARLINK-4270,1 52863U 22062AK  24212.11696150  .00000670  00000-0  60212-4 0  9994,2 52863  53.2174 141.8365 0001545  75.3575 284.7588 15.08831181117718,6917.907,95.438,540.841,538.704,0.0
52863.0,STARLINK-4270,PAYLOAD,2024-07-30 12:20:43,15.08846887,0.0001685,53.2182,140.0536,78.3429,281.7752,0.000165,2.339e-05,0.0,0 STARLINK-4270,1 52863U 22062AK  24212.51439034  .00002339  00000-0  16500-3 0  9998,2 52863  53.2182 140.0536 0001685  78.3429 281.7752 15.08846887117779,6917.859,95.437,540.89,538.559,0.0
52863.0,STARLINK-4270,PAYLOAD,2024-07-30 18:42:16,15.08841871,0.0001454,53.2168,138.8672,87.614,272.5019,0.00017905,2.563e-05,0.0,0 STARLINK-4270,1 52863U 22062AK  24212.77935234  .00002563  00000-0  17905-3 0  9998,2 52863  53.2168 138.8672 0001454  87.6140 272.5019 15.08841871117329,6917.875,95.437,540.746,538.734,0.0
52863.0,STARLINK-4270,PAYLOAD,2024-07-31 12:11:29,15.08859405,0.0001483,53.2171,135.5951,85.5074,274.6087,0.00016966,2.415e-05,0.0,0 STARLINK-4270,1 52863U 22062AK  24213.50797915  .00002415  00000-0  16966-3 0  9994,2 52863  53.2171 135.5951 0001483  85.5074 274.6087 15.08859405117434,6917.821,95.436,540.712,538.66,0.0
52863.0,STARLINK-4270,PAYLOAD,2024-07-31 18:33:04,15.08818836,0.0001363,53.2174,134.4036,91.4435,268.6714,1.4926e-05,-5e-07,0.0,0 STARLINK-4270,1 52863U 22062AK  24213.77296948 -.00000050  00000-0  14926-4 0  9992,2 52863  53.2174 134.4036 0001363  91.4435 268.6714 15.08818836117470,6917.945,95.439,540.753,538.867,0.0
52863.0,STARLINK-4270,PAYLOAD,2024-08-01 02:29:59,15.0883816,0.0001254,53.2159,132.9186,78.6854,281.4279,-0.00010074,-1.891e-05,0.0,0 STARLINK-4270,1 52863U 22062AK  24214.10415661 -.00001891  00000-0 -10074-3 0  9999,2 52863  53.2159 132.9186 0001254  78.6854 281.4279 15.08838160118015,6917.886,95.438,540.619,538.884,0.0
52863.0,STARLINK-4270,PAYLOAD,2024-08-01 12:02:16,15.08855127,0.0001176,53.216,131.1288,111.9909,248.1208,5.3935e-05,5.71e-06,0.0,0 STARLINK-4270,1 52863U 22062AK  24214.50158499  .00000571  00000-0  53935-4 0  9992,2 52863  53.2160 131.1288 0001176 111.9909 248.1208 15.08855127118076,6917.834,95.437,540.513,538.886,0.0
52863.0,STARLINK-4270,PAYLOAD,2024-08-01 23:09:59,15.08833376,0.0001444,53.2164,129.0492,97.5968,262.5188,-0.00017647,-3.095e-05,0.0,0 STARLINK-4270,1 52863U 22062AK  24214.96527721 -.00003095  00000-0 -17647-3 0  9995,2 52863  53.2164 129.0492 0001444  97.5968 262.5188 15.08833376117657,6917.901,95.438,540.765,538.767,0.0
52863.0,STARLINK-4270,PAYLOAD,2024-08-02 00:45:23,15.08833647,0.0001516,53.2163,128.7527,93.4574,266.6591,-0.00013605,-2.452e-05,0.0,0 STARLINK-4270,1 52863U 22062AK  24215.03151794 -.00002452  00000-0 -13605-3 0  9993,2 52863  53.2163 128.7527 0001516  93.4574 266.6591 15.08833647118159,6917.9,95.438,540.814,538.716,0.0
52863.0,STARLINK-4270,PAYLOAD,2024-08-02 11:53:04,15.08841682,0.000153,53.2167,126.6669,115.2769,244.8382,5.8684e-05,6.46e-06,0.0,0 STARLINK-4270,1 52863U 22062AK  24215.49519430  .00000646  00000-0  58684-4 0  9996,2 52863  53.2167 126.6669 0001530 115.2769 244.8382 15.08841682117739,6917.875,95.437,540.799,538.682,0.0
52863.0,STARLINK-4270,PAYLOAD,2024-08-02 21:25:24,15.0883472,0.0001455,53.2157,124.8902,107.4679,252.6472,0.00024078,3.546e-05,0.0,0 STARLINK-4270,1 52863U 22062AK  24215.89264199  .00003546  00000-0  24078-3 0  9990,2 52863  53.2157 124.8902 0001455 107.4679 252.6472 15.08834720117795,6917.897,95.438,540.768,538.755,0.0
52863.0,STARLINK-4270,PAYLOAD,2024-08-03 00:36:10,15.08831374,0.0001414,53.2172,124.2939,95.1376,264.9778,0.00024277,3.577e-05,0.0,0 STARLINK-4270,1 52863U 22062AK  24216.02512480  .00003577  00000-0  24277-3 0  9990,2 52863  53.2172 124.2939 0001414  95.1376 264.9778 15.08831374117818,6917.907,95.438,540.75,538.794,0.0
52863.0,STARLINK-4270,PAYLOAD,2024-08-03 21:16:11,15.08838872,0.0001449,53.216,120.4266,89.3893,270.7265,0.00025819,3.823e-05,0.0,0 STARLINK-4270,1 52863U 22062AK  24216.88624316  .00003823  00000-0  25819-3 0  9993,2 52863  53.2160 120.4266 0001449  89.3893 270.7265 15.08838872118438,6917.884,95.438,540.751,538.746,0.0
52863.0,STARLINK-4270,PAYLOAD,2024-08-03 22:51:34,15.08838298,0.0001463,53.2163,120.1299,89.753,270.363,0.00024777,3.657e-05,0.0,0 STARLINK-4270,1 52863U 22062AK  24216.95248306  .00003657  00000-0  24777-3 0  9999,2 52863  53.2163 120.1299 0001463  89.7530 270.3630 15.08838298117952,6917.886,95.438,540.763,538.739,0.0
52863.0,STARLINK-4270,PAYLOAD,2024-08-04 09:59:15,15.08851046,0.000143,53.2165,118.0475,94.0769,266.0387,0.00026946,4.004e-05,0.0,0 STARLINK-4270,1 52863U 22062AK  24217.41615693  .00004004  00000-0  26946-3 0  9995,2 52863  53.2165 118.0475 0001430  94.0769 266.0387 15.08851046118513,6917.847,95.437,540.701,538.722,0.0
52863.0,STARLINK-4270,PAYLOAD,2024-08-04 21:06:56,15.08867414,0.000161,53.2161,115.9646,86.5133,273.6043,-0.00030497,-5.142e-05,0.0,0 STARLINK-4270,1 52863U 22062AK  24217.87982570 -.00005142  00000-0 -30497-3 0  9998,2 52863  53.2161 115.9646 0001610  86.5133 273.6043 15.08867414118582,6917.797,95.436,540.775,538.548,0.0
52863.0,STARLINK-4270,PAYLOAD,2024-08-04 22:42:20,15.08859485,0.000151,53.2161,115.6675,91.2704,268.8461,0.00030821,4.623e-05,0.0,0 STARLINK-4270,1 52863U 22062AK  24217.94607283  .00004623  00000-0  30821-3 0  9993,2 52863  53.2161 115.6675 0001510  91.2704 268.8461 15.08859485118104,6917.821,95.436,540.73,538.641,0.0
52863.0,STARLINK-4270,PAYLOAD,2024-08-05 00:17:43,15.0885514,0.0001515,53.2167,115.3804,99.2497,260.8667,0.00034002,5.13e-05,0.0,0 STARLINK-4270,1 52863U 22062AK  24218.01231387  .00005130  00000-0  34002-3 0  9999,2 52863  53.2167 115.3804 0001515  99.2497 260.8667 15.08855140118602,6917.834,95.437,540.747,538.651,0.0
52863.0,STARLINK-4270,PAYLOAD,2024-08-05 22:33:08,15.08805909,0.0001431,53.2165,111.211,77.4973,282.6179,-0.00074105,-0.00012051,0.0,0 STARLINK-4270,1 52863U 22062AK  24218.93968517 -.00012051  00000-0 -74105-3 0  9992,2 52863  53.2165 111.2110 0001431  77.4973 282.6179 15.08805909118258,6917.985,95.44,540.84,538.86,0.0
52863.0,STARLINK-4270,PAYLOAD,2024-08-06 03:19:18,15.08810486,0.0001486,53.216,110.3189,74.6541,285.4616,0.00041553,6.326e-05,0.0,0 STARLINK-4270,1 52863U 22062AK  24219.13841002  .00006326  00000-0  41553-3 0  9991,2 52863  53.2160 110.3189 0001486  74.6541 285.4616 15.08810486118779,6917.971,95.439,540.864,538.808,0.0
52863.0,STARLINK-4270,PAYLOAD,2024-08-06 20:48:33,15.08850984,0.0001399,53.2152,107.0483,67.0413,293.0726,0.0020694,0.0003281,0.0,0 STARLINK-4270,1 52863U 22062AK  24219.86705839  .00032810  00000-0  20694-2 0  9997,2 52863  53.2152 107.0483 0001399  67.0413 293.0726 15.08850984118883,6917.847,95.437,540.68,538.744,0.0
52863.0,STARLINK-4270,PAYLOAD,2024-08-07 01:34:43,15.08865259,0.0001439,53.2154,106.1558,65.4471,294.6671,0.0021356,0.00033887,0.0,0 STARLINK-4270,1 52863U 22062AK  24220.06577579  .00033887  00000-0  21356-2 0  9990,2 52863  53.2154 106.1558 0001439  65.4471 294.6671 15.08865259118426,6917.803,95.436,540.664,538.673,0.0
52863.0,STARLINK-4270,PAYLOAD,2024-08-07 20:39:21,15.08845953,0.0001525,53.2145,102.5843,63.2208,296.894,0.0015747,0.00024866,0.0,0 STARLINK-4270,1 52863U 22062AK  24220.86066426  .00024866  00000-0  15747-2 0  9996,2 52863  53.2145 102.5843 0001525  63.2208 296.8940 15.08845953119033,6917.862,95.437,540.782,538.672,0.0
52863.0,STARLINK-4270,PAYLOAD,2024-08-08 22:05:31,15.08860294,9.79e-05,53.2139,97.8272,98.9916,261.1187,0.0010319,0.00016182,0.0,0 STARLINK-4270,1 52863U 22062AK  24221.92049900  .00016182  00000-0  10319-2 0  9994,2 52863  53.2139  97.8272 0000979  98.9916 261.1187 15.08860294119191,6917.818,95.436,540.361,539.006,0.0
52863.0,STARLINK-4270,PAYLOAD,2024-08-09 01:16:16,15.08892797,0.0001713,53.2154,97.2292,105.2216,254.8966,0.0023079,0.00036687,0.0,0 STARLINK-4270,1 52863U 22062AK  24222.05297377  .00036687  00000-0  23079-2 0  9991,2 52863  53.2154  97.2292 0001713 105.2216 254.8966 15.08892797119216,6917.719,95.434,540.769,538.399,0.0
52863.0,STARLINK-4270,PAYLOAD,2024-08-09 09:13:11,15.08901227,0.000177,53.2156,95.7415,107.1716,252.947,0.0014937,0.00023604,0.0,0 STARLINK-4270,1 52863U 22062AK  24222.38416183  .00023604  00000-0  14937-2 0  9993,2 52863  53.2156  95.7415 0001770 107.1716 252.9470 15.08901227119260,6917.693,95.434,540.783,538.334,0.0
